{
  "norad_id": 62506,
  "name": "STARLINK-32681",
  "history": [
    {
      "epoch": "2026-03-28T22:19:28.046208Z",
      "apogee_km": 483.4197928506437,
      "perigee_km": 482.6636909532863,
      "latitude_deg": -1.3441684132358007e-06,
      "longitude_deg": 0.5456705462695992,
      "height_km": 482.9267040087186,
      "semi_major_axis_km": 6861.178741901965,
      "eccentricity": 5.51e-05,
      "inclination_deg": 42.9999,
      "raan_deg": 161.7561,
      "arg_perigee_deg": 106.9376,
      "mean_anomaly_deg": 253.1536,
      "mean_motion_rev_day": 15.27582456
    }
  ]
}