{"fetched_at":"2026-03-29T16:36:15Z","count":15609,"tles":[{"name":"STARLINK-32681","line1":"1 62506U 25003V   26087.93018572  .00019958  00000+0  73277-3 0  9997","line2":"2 62506  42.9999 161.7561 0000551 106.9376 253.1536 15.27582456 69828","category":"Starlink"}]}